HIBARI                  
1 49400U 21102F   24211.54252085  .00009782  00000+0  55612-3 0  9991
2 49400  97.4275 258.6694 0019012  99.5928 260.7452 15.12928858149524
KOSEN-1                 
1 49402U 21102H   24211.87178439  .00008051  00000+0  46783-3 0  9996
2 49402  97.4216 258.6309 0020258  94.9902 265.3642 15.12180713149598
GLOBAL-14               
1 49469U 21106A   24210.51784048  .00085945  00000+0  22171-2 0  9993
2 49469  42.0092 352.3977 0010023 286.8444  73.1296 15.38114881152016
GLOBAL-15               
1 49470U 21106B   24211.54608906  .00120095  00000+0  85855-3 0  9992
2 49470  41.9964 352.5709 0029396 349.4453  10.5779 15.72002542152095
GAOFEN-3 02             
1 49495U 21109A   24211.85922009  .00000157  00000+0  60796-4 0  9993
2 49495  98.4128 218.5757 0000840 244.4107 115.6996 14.42216640141243
GLOBAL-12               
1 49772U 21115BA  24211.60095940  .00019768  00000+0  52149-3 0  9996
2 49772  53.2050  50.4060 0001194  60.0668 300.0456 15.38505334149854
GLOBAL-13               
1 49773U 21115BB  24211.18552428  .00025216  00000+0  66399-3 0  9996
2 49773  53.2054  53.6094 0000702 205.6557 154.4413 15.38409328149770
TIANJIN UNIVERSITY 1 (*)
1 49812U 21117A   24211.57635449  .01552854  23785-5  87312-3 0  9993
2 49812  97.3111 311.3810 0009504 250.1014 109.9251 16.19185953149005
GLOBAL-17               
1 49949U 21120A   24211.42947852  .00022780  00000+0  59776-3 0  9997
2 49949  42.0036 113.7880 0007498 253.6850 106.3165 15.38135411148835
GLOBAL-16               
1 49950U 21120B   24211.20136589  .00022632  00000+0  58988-3 0  9992
2 49950  42.0031 114.6560 0007667 245.8696 114.1342 15.38344519148796
XW-3 (CAS-9)            
1 50466U 21131B   24211.86748439  .00001039  00000+0  34566-3 0  9997
2 50466  98.5279 296.7396 0004174  16.2350 343.8971 14.39756585136141
UMBRA-02                
1 50986U 22002C   24211.84752835  .00072116  00000+0  21910-2 0  9997
2 50986  97.3871 276.4868 0005869 170.3259 189.8098 15.33776067140790
TEVEL-3                 
1 50988U 22002E   24211.85664250  .01304663  10017-2  19687-2 0  9999
2 50988  97.3554 290.7385 0011613 253.6978 106.3025 16.04728723141790
TEVEL-8                 
1 50989U 22002F   24211.72236620  .01153521  72501-3  19039-2 0  9995
2 50989  97.3618 290.6701 0012338 253.6892 106.3031 16.03133213141760
ION SCV-004             
1 50993U 22002K   24211.42386724  .00005570  00000+0  26550-3 0  9995
2 50993  97.3857 271.3854 0007881 260.2289  99.8056 15.19481485140435
TEVEL-1                 
1 51013U 22002AF  24211.65443637  .01110985  65638-3  19042-2 0  9998
2 51013  97.3625 290.3231 0012280 253.3533 106.6399 16.02474916141753
IRIS-A                  
1 51044U 22002BN  24211.42999689  .00022640  00000+0  69865-3 0  9996
2 51044  97.3818 277.8401 0005168 228.6899 131.3899 15.33564376140894
KEPLER-19               
1 51051U 22002BV  24211.16862799  .00018422  00000+0  63126-3 0  9993
2 51051  97.3868 275.8557 0005590 243.3845 116.6824 15.30236195140718
ETV-A1                  
1 51060U 22002CE  24211.80006202  .00008402  00000+0  36928-3 0  9990
2 51060  97.3880 273.7088 0006373 273.2096  86.8411 15.22132625140600
BRO-5                   
1 51061U 22002CF  24211.83946601  .00018905  00000+0  73006-3 0  9997
2 51061  97.3927 275.5910 0006262 270.6053  89.4468 15.26293673140705
TEVEL-7                 
1 51062U 22002CG  24211.81775354  .01292565  98770-3  18993-2 0  9996
2 51062  97.3613 290.7797 0012188 256.4048 103.5876 16.05149614141783
TEVEL-4                 
1 51063U 22002CH  24211.78055949  .00969696  46383-3  18759-2 0  9992
2 51063  97.3651 290.5201 0011726 251.3453 108.6553 16.00342171141769
TEVEL-2                 
1 51069U 22002CP  24211.41590604  .01151148  72900-3  18405-2 0  9998
2 51069  97.3563 290.2210 0011681 252.9484 107.0517 16.03687771141725
VZLUSAT-2               
1 51085U 22002DF  24211.83235417  .00015974  00000+0  56663-3 0  9992
2 51085  97.3852 276.1019 0008710 255.0041 105.0235 15.29117918140784
L-SAR 01A               
1 51284U 22007A   24211.85336932  .00001516  00000+0  16937-3 0  9991
2 51284  97.8110 218.1228 0001581  91.3204 268.8193 14.88409459136230
INSPIRESAT-1            
1 51657U 22013B   24211.48460543  .00016219  00000+0  60501-3 0  9999
2 51657  97.5270 228.6641 0008978  34.6763 325.5059 15.27459944136016
INS-2TD                 
1 51658U 22013C   24211.82015953  .00063977  00000+0  11112-2 0  9995
2 51658  97.5157 236.7772 0003216  32.6273 327.5177 15.50616109136590
L-SAR 01B               
1 51822U 22018A   24211.88690374  .00001535  00000+0  17141-3 0  9996
2 51822  97.8115 218.1274 0001605  90.9124 269.2277 14.88410423131479
2022-019D               
1 51827U 22019D   24211.88448022  .00013626  00000+0  57691-3 0  9991
2 51827  97.4320 283.3160 0014127  91.5315 268.7540 15.23201062133744
2022-019G               
1 51830U 22019G   24211.83778395  .00145185  00000+0  17113-2 0  9999
2 51830  97.4234 294.1884 0004526  40.3621 319.7971 15.60877076134481
JILIN-1 GAOFEN 03D14    
1 51831U 22019H   24211.83128114  .00015156  00000+0  68075-3 0  9996
2 51831  97.4339 285.7740 0014533  80.0963 280.1912 15.21156189133908
2022-019J               
1 51832U 22019J   24211.83116105  .00003161  00000+0  17260-3 0  9997
2 51832  97.4311 279.8349 0011261 106.7034 253.5435 15.14989982133516
JILIN-1 GAOFEN 03D16    
1 51834U 22019L   24211.82142090  .00015589  00000+0  68005-3 0  9990
2 51834  97.4313 285.8263 0010061  92.7193 267.5195 15.22198560133903
JILIN-1 GAOFEN 03D11    
1 51835U 22019M   24211.81854131  .00015444  00000+0  68188-3 0  9998
2 51835  97.4346 285.8412 0012407  80.1879 280.0757 15.21765905133900
JILIN-1 GAOFEN 03D17    
1 51838U 22019Q   24211.85336942  .00020423  00000+0  71637-3 0  9996
2 51838  97.4321 286.4662 0011452  88.5933 271.6619 15.29406159133951
JILIN-1 GAOFEN 03D15    
1 51839U 22019R   24211.84619371  .00014558  00000+0  63512-3 0  9991
2 51839  97.4318 285.7320 0007425  96.0629 264.1454 15.22233573133913
JILIN-1 GAOFEN 03D10    
1 51840U 22019S   24211.83739828  .00015549  00000+0  67208-3 0  9999
2 51840  97.4323 285.8893 0006548  61.2608 298.9285 15.22540123133912
JILIN-1 GAOFEN 03D12    
1 51841U 22019T   24211.84932096  .00013956  00000+0  62466-3 0  9994
2 51841  97.4306 285.7596 0009301  70.4970 289.7269 15.21351656133917
JILIN-1 GAOFEN 03D18    
1 51844U 22019W   24211.83705291  .00014780  00000+0  66639-3 0  9993
2 51844  97.4305 285.5362 0015306  82.7374 277.5601 15.21022521133803
2022-023F               
1 51951U 22023F   24211.86041803  .00029274  00000+0  13056-2 0  9990
2 51951  63.4984  88.0443 0084519 343.7443  16.0961 15.18091105133358
ORESAT0                 
1 52017U 22026K   24211.48907945  .00109321  00000+0  12478-2 0  9992
2 52017  97.4911 227.9228 0011322  81.3781 278.8758 15.61772303132294
CZ-4C R/B               
1 52085U 22027B   24211.91418425 -.00000014  00000+0  89696-4 0  9994
2 52085  63.3972  87.8945 0171811  26.6636 334.3108 13.65396247118199
MERIDIAN 10             
1 52145U 22030A   24211.06075172  .00000286  00000+0  00000+0 0  9996
2 52145  62.6563 213.6180 6826089 273.7532  16.9848  2.00613184 17229
OMNI-L1                 
1 52157U 22033A   24211.45932641  .00004115  00000+0  55957-3 0  9998
2 52157  97.8937 292.7226 0005480   9.7469 350.3848 14.79313165125679
ENMAP                   
1 52159U 22033C   24211.54729334  .00001034  00000+0  16139-3 0  9999
2 52159  97.9777 292.6742 0001354  89.4907 270.6457 14.74946829125296
ARCSAT-1                
1 52161U 22033E   24211.79963256  .00009988  00000+0  31034-3 0  9999
2 52161  97.3230 291.2140 0008037 158.3500 201.8084 15.33515553129641
ION SCV-005             
1 52163U 22033G   24211.89423521  .00869562  23526-5  68467-3 0  9994
2 52163  97.3236 335.8105 0036494 225.5676 134.2622 16.13031152132529
MP42                    
1 52169U 22033N   24211.86512860  .00078715  00000+0  87812-3 0  9995
2 52169  97.3212 300.8645 0004909 134.3296 225.8366 15.62534842130292
BRO-7                   
1 52174U 22033T   24211.85850943  .00019329  00000+0  44368-3 0  9992
2 52174  97.3248 295.7902 0010065 128.5046 231.7106 15.42700702129950
SUCHAI-2                
1 52192U 22033AM  24211.47444070  .00098829  00000+0  99235-3 0  9995
2 52192  97.3048 299.9336 0003856 147.8074 212.3422 15.65160948130281
GLOBAL-18               
1 52196U 22034B   24211.86914444  .00021761  00000+0  56250-3 0  9991
2 52196  52.9904 268.9233 0004897 355.3441   4.7515 15.39056394131079
GLOBAL-20               
1 52197U 22034C   24211.84536357  .00003273  00000+0  64471-4 0  9996
2 52197  52.9892 255.1012 0013657 345.2201  14.8405 15.50377401131264
GAOFEN-3 03             
1 52200U 22035A   24211.83224308  .00000156  00000+0  60695-4 0  9992
2 52200  98.4121 219.1660 0001760  87.6853 272.4538 14.42216076121785
DAQI 1                  
1 52257U 22039A   24211.83506132  .00000782  00000+0  18078-3 0  9998
2 52257  98.2106 148.9406 0002288 138.8326 221.3046 14.57821870121805
JILIN-1 GAOFEN 4A       
1 52388U 22046A   24211.85303698  .00018022  00000+0  77740-3 0  9992
2 52388  97.5020 298.7576 0014676 322.3715  37.6494 15.22501292124247
JILIN-1 GAOFEN 3D05     
1 52390U 22046C   24211.86590269  .00015598  00000+0  73213-3 0  9994
2 52390  97.4981 300.6657 0001473  78.9218 281.2182 15.19729110124407
JILIN-1 GAOFEN 3D07     
1 52392U 22046E   24211.83670479  .00015626  00000+0  68846-3 0  9993
2 52392  97.5055 301.5216 0003270 105.2282 254.9316 15.21903557124414
BRO-6                   
1 52422U 22047AE  24211.83270841  .00009966  00000+0  41099-3 0  9998
2 52422  97.3952 291.1086 0006789  30.2371 329.9257 15.24240003125607
JILIN-1 GAOFEN 3D27     
1 52444U 22048B   24211.84591355  .00013631  00000+0  65620-3 0  9990
2 52444  97.5975 290.7262 0008400 336.9448  23.1408 15.18855297123702
